ONEWEB-0545             
1 54647U 22166F   25059.33079712  .00000125  00000+0  27054-3 0  9994
2 54647  87.9346 338.4477 0001669  99.3363 260.7959 13.21823970108908
ONEWEB-0580             
1 54648U 22166G   25059.53108301  .00000068  00000+0  13369-3 0  9994
2 54648  87.9351 338.3960 0001427  88.2887 271.8411 13.21825138108972
ONEWEB-0582             
1 54649U 22166H   25059.19517720  .00000163  00000+0  36252-3 0  9998
2 54649  87.9334 338.4882 0001280  91.5866 268.5415 13.21824050108901
ONEWEB-0583             
1 54650U 22166J   25059.50900628  .00000043  00000+0  71749-4 0  9996
2 54650  87.9348 338.4257 0001756  83.2806 276.8527 13.21824310108954
ONEWEB-0584             
1 54651U 22166K   25059.30241193  .00000063  00000+0  12185-3 0  9990
2 54651  87.9352 338.4453 0001332  83.1722 276.9563 13.21824114108913
ONEWEB-0585             
1 54652U 22166L   25059.70612330  .00000077  00000+0  15481-3 0  9997
2 54652  87.9341 338.3644 0001840  75.3367 284.7971 13.21823516108976
ONEWEB-0586             
1 54653U 22166M   25059.18887988  .00000192  00000+0  43331-3 0  9996
2 54653  87.9351 338.4811 0001677  84.0802 276.0523 13.21825850108907
ONEWEB-0587             
1 54654U 22166N   25059.27403387  .00000133  00000+0  29055-3 0  9996
2 54654  87.9348 338.4151 0001935  74.8526 285.2821 13.21824896109530
